{
    "links": {
        "self": "http://www.neowsapp.com/rest/v1/neo/3154507?api_key=iIulBulltgU6a56xZRHN4H3l9WmuAYTsLGpBGhQ2"
    },
    "id": "3154507",
    "neo_reference_id": "3154507",
    "name": "(2003 KF4)",
    "designation": "2003 KF4",
    "nasa_jpl_url": "http://ssd.jpl.nasa.gov/sbdb.cgi?sstr=3154507",
    "absolute_magnitude_h": 23.3,
    "estimated_diameter": {
        "kilometers": {
            "estimated_diameter_min": 0.058150704,
            "estimated_diameter_max": 0.130028927
        },
        "meters": {
            "estimated_diameter_min": 58.1507039646,
            "estimated_diameter_max": 130.0289270043
        },
        "miles": {
            "estimated_diameter_min": 0.0361331611,
            "estimated_diameter_max": 0.0807962044
        },
        "feet": {
            "estimated_diameter_min": 190.7831555951,
            "estimated_diameter_max": 426.6041048727
        }
    },
    "is_potentially_hazardous_asteroid": false,
    "close_approach_data": [
        {
            "close_approach_date": "2003-05-26",
            "close_approach_date_full": "2003-May-26 03:45",
            "epoch_date_close_approach": 1053920700000,
            "relative_velocity": {
                "kilometers_per_second": "10.3436522629",
                "kilometers_per_hour": "37237.1481466024",
                "miles_per_hour": "23137.7157469819"
            },
            "miss_distance": {
                "astronomical": "0.0205567791",
                "lunar": "7.9965870699",
                "kilometers": "3075250.367420517",
                "miles": "1910871.9700044546"
            },
            "orbiting_body": "Earth"
        }
    ],
    "orbital_data": {
        "orbit_id": "14",
        "orbit_determination_date": "2017-04-06 09:14:05",
        "first_observation_date": "2003-05-25",
        "last_observation_date": "2003-06-08",
        "data_arc_in_days": 14,
        "observations_used": 107,
        "orbit_uncertainty": "7",
        "minimum_orbit_intersection": ".0130286",
        "jupiter_tisserand_invariant": "3.320",
        "epoch_osculation": "2459000.5",
        "eccentricity": ".5707020764336743",
        "semi_major_axis": "2.331268613650923",
        "inclination": "8.267739944120843",
        "ascending_node_longitude": "60.79354572950268",
        "orbital_period": "1300.130366337278",
        "perihelion_distance": "1.000808775115688",
        "perihelion_argument": "157.4046841683649",
        "aphelion_distance": "3.661728452186158",
        "perihelion_time": "2459254.689006269954",
        "mean_anomaly": "289.6162564720494",
        "mean_motion": ".2768953093636223",
        "equinox": "J2000",
        "orbit_class": {
            "orbit_class_type": "APO",
            "orbit_class_description": "Near-Earth asteroid orbits which cross the Earth’s orbit similar to that of 1862 Apollo",
            "orbit_class_range": "a (semi-major axis) > 1.0 AU; q (perihelion) < 1.017 AU"
        }
    },
    "is_sentry_object": false
}